CZ-2C R/B               
1 31114U 07010B   26190.25116606  .00000044  00000+0  39518-4 0  9990
2 31114  98.4114 297.5248 0057908 301.3979  58.1542 14.20280908996976
COSMOS 2428             
1 31792U 07029A   26190.51520218  .00000159  00000+0  11084-3 0  9993
2 31792  70.9381 307.5965 0007171  92.2746 267.9197 14.12931512981304
SL-16 R/B               
1 31793U 07029B   26191.22230965 -.00000075  00000+0 -14250-4 0  9998
2 31793  70.9750 274.8067 0002090 257.2336 133.5734 14.14850723982703
KORONAS-FOTON           
1 33504U 09003A   26190.79768631  .00009555  00000+0  19314-3 0  9996
2 33504  82.4294 148.6652 0012476  78.8517 281.4133 15.46211676964598
CZ-2C R/B               
1 37731U 11030B   26191.35946575  .00000702  00000+0  94536-4 0  9998
2 37731  97.8667 146.3297 0051088 312.2886 199.7792 14.81526536808258
H-2A R/B                
1 38341U 12025E   26191.97170205  .00000740  00000+0  71446-4 0  9995
2 38341  98.4844 169.0818 0042237 269.4065  90.2314 14.95832157766644
SHIJIAN-16 (SJ-16)      
1 39358U 13057A   26192.16774709  .00001885  00000+0  18522-3 0  9997
2 39358  74.9736 311.2622 0015934 174.6617 185.4744 14.92667460689929
SL-4 R/B                
1 39679U 14021B   26192.10452957  .00005764  00000+0  12262-3 0  9992
2 39679  51.6060  93.5584 0089882 193.4185 166.4409 15.42429106675309
ALOS-2                  
1 39766U 14029A   26192.08119866  .00000414  00000+0  62362-4 0  9997
2 39766  97.9222 288.9034 0001625  93.1254 267.0143 14.79474805655116
YAOGAN-29               
1 41038U 15069A   26192.19629061  .00000299  00000+0  43306-4 0  9990
2 41038  98.0028 220.8661 0001069  20.2431 339.8824 14.83105505574182
ASTRO-H (HITOMI)        
1 41337U 16012A   26191.49201072  .00001745  00000+0  97284-4 0  9992
2 41337  30.9996 283.6687 0009565 127.9678 232.1825 15.10620801570819
HXMT (HUIYAN)           
1 42758U 17034A   26192.07639182  .00003029  00000+0  15309-3 0  9991
2 42758  43.0149  50.0015 0032645 295.6331  64.1146 15.18665979501295
SAOCOM 1A               
1 43641U 18076A   26192.16977890  .00000082  00000+0  16828-4 0  9995
2 43641  97.8893  18.5702 0001487  82.5393 277.5989 14.82145738419652
H-2A R/B                
1 43682U 18084L   26192.14658140  .00013195  00000+0  26979-3 0  9997
2 43682  98.8547  76.2871 0020710 315.5690  44.3893 15.46095184424820
SAOCOM 1B               
1 46265U 20059A   26192.20101279  .00000123  00000+0  21953-4 0  9990
2 46265  97.8895  17.6968 0001537  81.5845 278.5542 14.82155408317041
CSS (TIANHE)            
1 48274U 21035A   26192.17670403  .00001365  00000+0  21953-4 0  9992
2 48274  41.4681 176.1877 0002261 281.6943  78.3641 15.58018743296910
COSMOS 2550             
1 48865U 21056A   26191.95550616  .00000595  00000+0  23923-4 0  9992
2 48865  67.1431  28.0087 0008447 271.9767  88.0420 15.33797879282364
CZ-2C R/B               
1 52794U 22058K   26191.96504953  .00028709  00000+0  29996-3 0  9997
2 52794  50.1860  39.6356 0030552   5.0347 355.0929 15.63611371229364
CZ-2C R/B               
1 54039U 22132E   26190.99135490  .00055194  00000+0  37901-3 0  9995
2 54039  97.2898 199.0795 0010409   4.6583 355.4777 15.74465025209532
GSLV R/B                
1 54149U 22138AN  26190.23907571  .00002182  00000+0  18439-3 0  9991
2 54149  87.3814 125.5791 0024040  71.8269 288.5577 14.97366438202118
XRISM                   
1 57800U 23137A   26192.07921046  .00002190  00000+0  11670-3 0  9994
2 57800  31.0007 204.8153 0007847 205.3979 154.6275 15.12651821156483
ACS3                    
1 59588U 24077B   26191.16291775  .00019046  00000+0  13257-1 0  9990
2 59588  97.1735 104.8549 0117764  42.7288 318.2962 13.95378034111240
SPACEMOBILE-003         
1 61045U 24163A   26191.41571764 -.00000084  00000+0  10927-4 0  9991
2 61045  52.9615 202.6161 0005791 185.1427 174.9508 15.20785714101303
SPACEMOBILE-005         
1 61046U 24163B   26191.99068128  .00003338  00000+0  16421-3 0  9998
2 61046  52.9773 199.9229 0008771 183.0473 177.0469 15.20765328101388
SPACEMOBILE-001         
1 61047U 24163C   26191.06904487  .00000518  00000+0  37895-4 0  9990
2 61047  52.9749 203.8741 0007553 178.7608 181.3406 15.20815495101249
SPACEMOBILE-002         
1 61048U 24163D   26192.03876027  .00008243  00000+0  38281-3 0  9999
2 61048  52.9623 199.4399 0006620 180.9990 179.0992 15.20841812101395
SPACEMOBILE-004         
1 61049U 24163E   26190.57554382 -.00014088  00000+0 -61665-3 0  9992
2 61049  52.9654 205.9666 0008113 207.5207 152.5359 15.20814564101179
CZ-8A R/B               
1 66004U 25231K   26191.32023468 -.00000066  00000+0  35074-4 0  9991
2 66004  50.0052 300.8991 0116510 305.4577  53.5508 14.30161318 38257
SZ-21 MODULE            
1 66515U 25246C   26191.95718940  .00036243  00000+0  20325-3 0  9996
2 66515  41.4697 159.0508 0007339 191.9167 168.1505 15.78504518 37493
