OBJECT_NAME,OBJECT_ID,EPOCH,MEAN_MOTION,ECCENTRICITY,INCLINATION,RA_OF_ASC_NODE,ARG_OF_PERICENTER,MEAN_ANOMALY,EPHEMERIS_TYPE,CLASSIFICATION_TYPE,NORAD_CAT_ID,ELEMENT_SET_NO,REV_AT_EPOCH,BSTAR,MEAN_MOTION_DOT,MEAN_MOTION_DDOT
CZ-2C R/B,2007-010B,2026-07-09T06:01:40.747584,14.20280908,.00579085,98.4114,297.5248,301.3979,58.1542,0,U,31114,999,99697,.3951846E-4,.44E-6,0
COSMOS 2428,2007-029A,2026-07-09T12:21:53.468352,14.12931512,.00071712,70.9381,307.5965,92.2746,267.9197,0,U,31792,999,98130,.11084189E-3,.159E-5,0
SL-16 R/B,2007-029B,2026-07-10T05:20:07.553760,14.14850723,.00020909,70.9750,274.8067,257.2336,133.5734,0,U,31793,999,98270,-.14250226E-4,-.75E-6,0
KORONAS-FOTON,2009-003A,2026-07-09T19:08:40.097184,15.46211676,.00124762,82.4294,148.6652,78.8517,281.4133,0,U,33504,999,96459,.19314485E-3,.9555E-4,0
CZ-2C R/B,2011-030B,2026-07-10T08:37:37.840800,14.81526536,.0051088,97.8667,146.3297,312.2886,199.7792,0,U,37731,999,80825,.94535903E-4,.702E-5,0
H-2A R/B,2012-025E,2026-07-10T23:19:15.057120,14.95832157,.0042237,98.4844,169.0818,269.4065,90.2314,0,U,38341,999,76664,.71446E-4,.74E-5,0
SHIJIAN-16 (SJ-16),2013-057A,2026-07-11T04:01:33.348576,14.92667460,.0015934,74.9736,311.2622,174.6617,185.4744,0,U,39358,999,68992,.18522E-3,.1885E-4,0
SL-4 R/B,2014-021B,2026-07-11T02:30:31.354848,15.42429106,.0089882,51.6060,93.5584,193.4185,166.4409,0,U,39679,999,67530,.12262E-3,.5764E-4,0
ALOS-2,2014-029A,2026-07-11T01:56:55.564224,14.79474805,.0001625,97.9222,288.9034,93.1254,267.0143,0,U,39766,999,65511,.62362E-4,.414E-5,0
YAOGAN-29,2015-069A,2026-07-11T04:42:39.508704,14.83105505,.0001069,98.0028,220.8661,20.2431,339.8824,0,U,41038,999,57418,.43306E-4,.299E-5,0
ASTRO-H (HITOMI),2016-012A,2026-07-10T11:48:29.726208,15.10620801,.00095658,30.9996,283.6687,127.9678,232.1825,0,U,41337,999,57081,.97283675E-4,.1745E-4,0
HXMT (HUIYAN),2017-034A,2026-07-11T01:50:00.253248,15.18665979,.0032645,43.0149,50.0015,295.6331,64.1146,0,U,42758,999,50129,.15309E-3,.3029E-4,0
SAOCOM 1A,2018-076A,2026-07-11T04:04:28.896960,14.82145738,.0001487,97.8893,18.5702,82.5393,277.5989,0,U,43641,999,41965,.16828E-4,.82E-6,0
H-2A R/B,2018-084L,2026-07-11T03:31:04.632960,15.46095184,.002071,98.8547,76.2871,315.5690,44.3893,0,U,43682,999,42482,.26979E-3,.13195E-3,0
SAOCOM 1B,2020-059A,2026-07-11T04:49:27.505056,14.82155408,.0001537,97.8895,17.6968,81.5845,278.5542,0,U,46265,999,31704,.21953E-4,.123E-5,0
CSS (TIANHE),2021-035A,2026-07-11T04:14:27.228192,15.58018743,.0002261,41.4681,176.1877,281.6943,78.3641,0,U,48274,999,29691,.21953E-4,.1365E-4,0
COSMOS 2550,2021-056A,2026-07-10T22:55:55.732224,15.33797879,.0008447,67.1431,28.0087,271.9767,88.0420,0,U,48865,999,28236,.23923E-4,.595E-5,0
CZ-2C R/B,2022-058K,2026-07-10T23:09:40.279392,15.63611371,.0030552,50.1860,39.6356,5.0347,355.0929,0,U,52794,999,22936,.29996E-3,.28709E-3,0
CZ-2C R/B,2022-132E,2026-07-09T23:47:33.063360,15.74465025,.00104097,97.2898,199.0795,4.6583,355.4777,0,U,54039,999,20953,.37901472E-3,.55194E-3,0
GSLV R/B,2022-138AN,2026-07-09T05:44:16.141344,14.97366438,.002404,87.3814,125.5791,71.8269,288.5577,0,U,54149,999,20211,.18438878E-3,.2182E-4,0
XRISM,2023-137A,2026-07-11T01:54:03.783744,15.12651821,.0007847,31.0007,204.8153,205.3979,154.6275,0,U,57800,999,15648,.1167E-3,.219E-4,0
ACS3,2024-077B,2026-07-10T03:54:36.093600,13.95378034,.01177649,97.1735,104.8549,42.7288,318.2962,0,U,59588,999,11124,.13256571E-1,.19046E-3,0
SPACEMOBILE-003,2024-163A,2026-07-10T09:58:38.004096,15.20785714,.0005791,52.9615,202.6161,185.1427,174.9508,0,U,61045,999,10130,.10927E-4,-.84E-6,0
SPACEMOBILE-005,2024-163B,2026-07-10T23:46:34.862592,15.20765328,.0008771,52.9773,199.9229,183.0473,177.0469,0,U,61046,999,10138,.16421E-3,.3338E-4,0
SPACEMOBILE-001,2024-163C,2026-07-10T01:39:25.476768,15.20815495,.00075534,52.9749,203.8741,178.7608,181.3406,0,U,61047,999,10124,.37894656E-4,.518E-5,0
SPACEMOBILE-002,2024-163D,2026-07-11T00:55:48.887328,15.20841812,.000662,52.9623,199.4399,180.9990,179.0992,0,U,61048,999,10139,.38281E-3,.8243E-4,0
SPACEMOBILE-004,2024-163E,2026-07-09T13:48:46.986048,15.20814564,.00081135,52.9654,205.9666,207.5207,152.5359,0,U,61049,999,10117,-.61664582E-3,-.14088E-3,0
CZ-8A R/B,2025-231K,2026-07-10T07:41:08.276352,14.30161318,.011651,50.0052,300.8991,305.4577,53.5508,0,U,66004,999,3825,.35073685E-4,-.66E-6,0
SZ-21 MODULE,2025-246C,2026-07-10T22:58:21.164160,15.78504518,.0007339,41.4697,159.0508,191.9167,168.1505,0,U,66515,999,3749,.20325E-3,.36243E-3,0
